[
  {
    "OBJECT_NAME": "STARLINK-2530",
    "OBJECT_ID": "21036AD",
    "EPOCH": "2025-11-11T06:36:28.849824",
    "MEAN_MOTION": 15.06398934,
    "ECCENTRICITY": 0.00014,
    "INCLINATION": 53.0534,
    "RA_OF_ASC_NODE": 263.7389,
    "ARG_OF_PERICENTER": 89.0611,
    "MEAN_ANOMALY": 271.0538,
    "EPHEMERIS_TYPE": 0,
    "CLASSIFICATION_TYPE": "U",
    "NORAD_CAT_ID": 48303,
    "ELEMENT_SET_NO": 999,
    "REV_AT_EPOCH": 25031,
    "BSTAR": 0.00032228000000000004,
    "MEAN_MOTION_DOT": 4.522e-05,
    "MEAN_MOTION_DDOT": 0.0,
    "TLE_LINE1": "1 48303U 21036AD  25315.27533391  .00004522  00000+0  32228-3 0  9991",
    "TLE_LINE2": "2 48303  53.0534 263.7389 0001400  89.0611 271.0538 15.06398934250313",
    "COMMENT": "Grouped by shell and plane from TLE"
  },
  {
    "OBJECT_NAME": "STARLINK-2524",
    "OBJECT_ID": "21036AE",
    "EPOCH": "2025-11-11T05:16:45.524640",
    "MEAN_MOTION": 15.06398387,
    "ECCENTRICITY": 0.0001467,
    "INCLINATION": 53.0548,
    "RA_OF_ASC_NODE": 263.4488,
    "ARG_OF_PERICENTER": 96.997,
    "MEAN_ANOMALY": 263.1186,
    "EPHEMERIS_TYPE": 0,
    "CLASSIFICATION_TYPE": "U",
    "NORAD_CAT_ID": 48304,
    "ELEMENT_SET_NO": 999,
    "REV_AT_EPOCH": 25031,
    "BSTAR": 9.090300000000001e-05,
    "MEAN_MOTION_DOT": 1.073e-05,
    "MEAN_MOTION_DDOT": 0.0,
    "TLE_LINE1": "1 48304U 21036AE  25315.21997135  .00001073  00000+0  90903-4 0  9999",
    "TLE_LINE2": "2 48304  53.0548 263.4488 0001467  96.9970 263.1186 15.06398387250317",
    "COMMENT": "Grouped by shell and plane from TLE"
  },
  {
    "OBJECT_NAME": "STARLINK-2519",
    "OBJECT_ID": "21036AF",
    "EPOCH": "2025-11-11T06:31:10.034688",
    "MEAN_MOTION": 15.06405697,
    "ECCENTRICITY": 0.0001503,
    "INCLINATION": 53.054,
    "RA_OF_ASC_NODE": 263.7949,
    "ARG_OF_PERICENTER": 103.7611,
    "MEAN_ANOMALY": 256.3545,
    "EPHEMERIS_TYPE": 0,
    "CLASSIFICATION_TYPE": "U",
    "NORAD_CAT_ID": 48305,
    "ELEMENT_SET_NO": 999,
    "REV_AT_EPOCH": 25031,
    "BSTAR": 0.00048644,
    "MEAN_MOTION_DOT": 6.972e-05,
    "MEAN_MOTION_DDOT": 0.0,
    "TLE_LINE1": "1 48305U 21036AF  25315.27164392  .00006972  00000+0  48644-3 0  9994",
    "TLE_LINE2": "2 48305  53.0540 263.7949 0001503 103.7611 256.3545 15.06405697250311",
    "COMMENT": "Grouped by shell and plane from TLE"
  },
  {
    "OBJECT_NAME": "STARLINK-2523",
    "OBJECT_ID": "21036AG",
    "EPOCH": "2025-11-11T06:41:38.992128",
    "MEAN_MOTION": 15.06397742,
    "ECCENTRICITY": 0.0001509,
    "INCLINATION": 53.0542,
    "RA_OF_ASC_NODE": 263.1827,
    "ARG_OF_PERICENTER": 89.2947,
    "MEAN_ANOMALY": 270.8215,
    "EPHEMERIS_TYPE": 0,
    "CLASSIFICATION_TYPE": "U",
    "NORAD_CAT_ID": 48306,
    "ELEMENT_SET_NO": 999,
    "REV_AT_EPOCH": 25032,
    "BSTAR": 0.0,
    "MEAN_MOTION_DOT": -0.00014252,
    "MEAN_MOTION_DDOT": 0.0,
    "TLE_LINE1": "1 48306U 21036AG  25315.27892352 -.00014252  00000+0 -93982-3 0  9996",
    "TLE_LINE2": "2 48306  53.0542 263.1827 0001509  89.2947 270.8215 15.06397742250326",
    "COMMENT": "Grouped by shell and plane from TLE"
  },
  {
    "OBJECT_NAME": "STARLINK-2517",
    "OBJECT_ID": "21036AK",
    "EPOCH": "2025-11-11T06:25:46.286976",
    "MEAN_MOTION": 15.06395739,
    "ECCENTRICITY": 0.0001502,
    "INCLINATION": 53.0541,
    "RA_OF_ASC_NODE": 263.2323,
    "ARG_OF_PERICENTER": 108.1199,
    "MEAN_ANOMALY": 251.9954,
    "EPHEMERIS_TYPE": 0,
    "CLASSIFICATION_TYPE": "U",
    "NORAD_CAT_ID": 48309,
    "ELEMENT_SET_NO": 999,
    "REV_AT_EPOCH": 25032,
    "BSTAR": 0.0010156,
    "MEAN_MOTION_DOT": 0.00014877,
    "MEAN_MOTION_DDOT": 0.0,
    "TLE_LINE1": "1 48309U 21036AK  25315.26789684  .00014877  00000+0  10156-2 0  9993",
    "TLE_LINE2": "2 48309  53.0541 263.2323 0001502 108.1199 251.9954 15.06395739250327",
    "COMMENT": "Grouped by shell and plane from TLE"
  },
  {
    "OBJECT_NAME": "STARLINK-2536",
    "OBJECT_ID": "21036AL",
    "EPOCH": "2025-11-11T06:20:27.565152",
    "MEAN_MOTION": 15.06395709,
    "ECCENTRICITY": 0.000147,
    "INCLINATION": 53.0537,
    "RA_OF_ASC_NODE": 263.2483,
    "ARG_OF_PERICENTER": 91.3034,
    "MEAN_ANOMALY": 268.8123,
    "EPHEMERIS_TYPE": 0,
    "CLASSIFICATION_TYPE": "U",
    "NORAD_CAT_ID": 48310,
    "ELEMENT_SET_NO": 999,
    "REV_AT_EPOCH": 25032,
    "BSTAR": 0.00011316,
    "MEAN_MOTION_DOT": 1.404e-05,
    "MEAN_MOTION_DDOT": 0.0,
    "TLE_LINE1": "1 48310U 21036AL  25315.26420793  .00001404  00000+0  11316-3 0  9990",
    "TLE_LINE2": "2 48310  53.0537 263.2483 0001470  91.3034 268.8123 15.06395709250328",
    "COMMENT": "Grouped by shell and plane from TLE"
  },
  {
    "OBJECT_NAME": "STARLINK-2534",
    "OBJECT_ID": "21036AM",
    "EPOCH": "2025-11-11T03:04:04.702080",
    "MEAN_MOTION": 15.06388691,
    "ECCENTRICITY": 0.000121,
    "INCLINATION": 53.055,
    "RA_OF_ASC_NODE": 263.8606,
    "ARG_OF_PERICENTER": 89.9776,
    "MEAN_ANOMALY": 270.1352,
    "EPHEMERIS_TYPE": 0,
    "CLASSIFICATION_TYPE": "U",
    "NORAD_CAT_ID": 48311,
    "ELEMENT_SET_NO": 999,
    "REV_AT_EPOCH": 25030,
    "BSTAR": 6.8511e-06,
    "MEAN_MOTION_DOT": -1.79e-06,
    "MEAN_MOTION_DDOT": 0.0,
    "TLE_LINE1": "1 48311U 21036AM  25315.12783220 -.00000179  00000+0  68511-5 0  9993",
    "TLE_LINE2": "2 48311  53.0550 263.8606 0001210  89.9776 270.1352 15.06388691250305",
    "COMMENT": "Grouped by shell and plane from TLE"
  },
  {
    "OBJECT_NAME": "STARLINK-2061",
    "OBJECT_ID": "21036AN",
    "EPOCH": "2025-11-11T06:09:49.284288",
    "MEAN_MOTION": 15.06404118,
    "ECCENTRICITY": 0.0001074,
    "INCLINATION": 53.0531,
    "RA_OF_ASC_NODE": 263.2816,
    "ARG_OF_PERICENTER": 94.5205,
    "MEAN_ANOMALY": 265.5906,
    "EPHEMERIS_TYPE": 0,
    "CLASSIFICATION_TYPE": "U",
    "NORAD_CAT_ID": 48312,
    "ELEMENT_SET_NO": 999,
    "REV_AT_EPOCH": 25032,
    "BSTAR": 0.0,
    "MEAN_MOTION_DOT": -6.834e-05,
    "MEAN_MOTION_DDOT": 0.0,
    "TLE_LINE1": "1 48312U 21036AN  25315.25682042 -.00006834  00000+0 -44029-3 0  9999",
    "TLE_LINE2": "2 48312  53.0531 263.2816 0001074  94.5205 265.5906 15.06404118250327",
    "COMMENT": "Grouped by shell and plane from TLE"
  },
  {
    "OBJECT_NAME": "STARLINK-2549",
    "OBJECT_ID": "21036AQ",
    "EPOCH": "2025-11-11T05:59:13.524576",
    "MEAN_MOTION": 15.064039,
    "ECCENTRICITY": 0.0001477,
    "INCLINATION": 53.0539,
    "RA_OF_ASC_NODE": 263.3169,
    "ARG_OF_PERICENTER": 84.7451,
    "MEAN_ANOMALY": 275.3707,
    "EPHEMERIS_TYPE": 0,
    "CLASSIFICATION_TYPE": "U",
    "NORAD_CAT_ID": 48314,
    "ELEMENT_SET_NO": 999,
    "REV_AT_EPOCH": 25031,
    "BSTAR": 0.00068258,
    "MEAN_MOTION_DOT": 9.901e-05,
    "MEAN_MOTION_DDOT": 0.0,
    "TLE_LINE1": "1 48314U 21036AQ  25315.24946209  .00009901  00000+0  68258-3 0  9994",
    "TLE_LINE2": "2 48314  53.0539 263.3169 0001477  84.7451 275.3707 15.06403900250315",
    "COMMENT": "Grouped by shell and plane from TLE"
  },
  {
    "OBJECT_NAME": "STARLINK-2506",
    "OBJECT_ID": "21036AR",
    "EPOCH": "2025-11-11T04:18:23.056992",
    "MEAN_MOTION": 15.06395037,
    "ECCENTRICITY": 0.0001391,
    "INCLINATION": 53.0545,
    "RA_OF_ASC_NODE": 263.6285,
    "ARG_OF_PERICENTER": 77.4967,
    "MEAN_ANOMALY": 282.6177,
    "EPHEMERIS_TYPE": 0,
    "CLASSIFICATION_TYPE": "U",
    "NORAD_CAT_ID": 48315,
    "ELEMENT_SET_NO": 999,
    "REV_AT_EPOCH": 25030,
    "BSTAR": 0.00016826,
    "MEAN_MOTION_DOT": 2.225e-05,
    "MEAN_MOTION_DDOT": 0.0,
    "TLE_LINE1": "1 48315U 21036AR  25315.17943353  .00002225  00000+0  16826-3 0  9990",
    "TLE_LINE2": "2 48315  53.0545 263.6285 0001391  77.4967 282.6177 15.06395037250303",
    "COMMENT": "Grouped by shell and plane from TLE"
  },
  {
    "OBJECT_NAME": "STARLINK-2507",
    "OBJECT_ID": "21036AS",
    "EPOCH": "2025-11-11T05:48:36.153504",
    "MEAN_MOTION": 15.06411864,
    "ECCENTRICITY": 0.0001396,
    "INCLINATION": 53.0556,
    "RA_OF_ASC_NODE": 263.3493,
    "ARG_OF_PERICENTER": 86.8771,
    "MEAN_ANOMALY": 273.2378,
    "EPHEMERIS_TYPE": 0,
    "CLASSIFICATION_TYPE": "U",
    "NORAD_CAT_ID": 48316,
    "ELEMENT_SET_NO": 999,
    "REV_AT_EPOCH": 25031,
    "BSTAR": 2.5222e-06,
    "MEAN_MOTION_DOT": -2.44e-06,
    "MEAN_MOTION_DDOT": 0.0,
    "TLE_LINE1": "1 48316U 21036AS  25315.24208511 -.00000244  00000+0  25222-5 0  9991",
    "TLE_LINE2": "2 48316  53.0556 263.3493 0001396  86.8771 273.2378 15.06411864250313",
    "COMMENT": "Grouped by shell and plane from TLE"
  },
  {
    "OBJECT_NAME": "STARLINK-2513",
    "OBJECT_ID": "21036AT",
    "EPOCH": "2025-11-11T05:43:17.607936",
    "MEAN_MOTION": 15.06406755,
    "ECCENTRICITY": 0.0001052,
    "INCLINATION": 53.053,
    "RA_OF_ASC_NODE": 263.3678,
    "ARG_OF_PERICENTER": 95.0178,
    "MEAN_ANOMALY": 265.0932,
    "EPHEMERIS_TYPE": 0,
    "CLASSIFICATION_TYPE": "U",
    "NORAD_CAT_ID": 48317,
    "ELEMENT_SET_NO": 999,
    "REV_AT_EPOCH": 25031,
    "BSTAR": 0.0007444600000000001,
    "MEAN_MOTION_DOT": 0.00010827,
    "MEAN_MOTION_DDOT": 0.0,
    "TLE_LINE1": "1 48317U 21036AT  25315.23839824  .00010827  00000+0  74446-3 0  9995",
    "TLE_LINE2": "2 48317  53.0530 263.3678 0001052  95.0178 265.0932 15.06406755250311",
    "COMMENT": "Grouped by shell and plane from TLE"
  },
  {
    "OBJECT_NAME": "STARLINK-2227",
    "OBJECT_ID": "21041Y",
    "EPOCH": "2025-11-11T05:22:04.459008",
    "MEAN_MOTION": 15.06448764,
    "ECCENTRICITY": 7.8e-05,
    "INCLINATION": 53.054,
    "RA_OF_ASC_NODE": 263.7492,
    "ARG_OF_PERICENTER": 82.7314,
    "MEAN_ANOMALY": 277.3763,
    "EPHEMERIS_TYPE": 0,
    "CLASSIFICATION_TYPE": "U",
    "NORAD_CAT_ID": 48575,
    "ELEMENT_SET_NO": 999,
    "REV_AT_EPOCH": 24791,
    "BSTAR": 0.00080327,
    "MEAN_MOTION_DOT": 0.00011719,
    "MEAN_MOTION_DDOT": 0.0,
    "TLE_LINE1": "1 48575U 21041Y   25315.22366272  .00011719  00000+0  80327-3 0  9994",
    "TLE_LINE2": "2 48575  53.0540 263.7492 0000780  82.7314 277.3763 15.06448764247914",
    "COMMENT": "Grouped by shell and plane from TLE"
  }
]